ONEWEB-0534             
1 55797U 23029B   25314.97404254  .00000055  00000+0  10424-3 0  9992
2 55797  87.9175 318.0056 0001875  94.1828 265.9520 13.20771639132349
ONEWEB-0556             
1 55798U 23029C   25314.98035208  .00000000  00000+0 -31180-4 0  9997
2 55798  87.9181 318.0037 0001572 114.6847 245.4450 13.20771057132348
ONEWEB-0562             
1 55799U 23029D   25314.96770574  .00000103  00000+0  22247-3 0  9994
2 55799  87.9177 317.9896 0001009 105.4356 254.6889 13.20773475132347
ONEWEB-0563             
1 55800U 23029E   25314.73414379  .00000155  00000+0  34928-3 0  9996
2 55800  87.9183 318.0622 0001991  99.0130 261.1228 13.20771485132309
ONEWEB-0564             
1 55801U 23029F   25314.95509924  .00000134  00000+0  29856-3 0  9993
2 55801  87.9169 317.9959 0001375  92.5655 267.5636 13.20771662132345
ONEWEB-0638             
1 55802U 23029G   25314.78279086 -.00000157  00000+0 -45702-3 0  9993
2 55802  87.8988 333.2830 0001610 107.3617 252.7689 13.14501087130705
ONEWEB-0639             
1 55803U 23029H   25314.83119186  .00000009  00000+0 -10224-4 0  9991
2 55803  87.9215 348.4317 0002962 102.2835 257.8630 13.19725934130105
ONEWEB-0640             
1 55804U 23029J   25314.79229081 -.00000226  00000+0 -64424-3 0  9995
2 55804  87.8989 333.2667 0001958 117.2070 242.9260 13.14502016130725
ONEWEB-0641             
1 55805U 23029K   25314.82644368  .00000067  00000+0  13561-3 0  9996
2 55805  87.9226 348.4105 0002063  96.7812 263.3555 13.19726769130114
ONEWEB-0642             
1 55806U 23029L   25314.82171024  .00000023  00000+0  25404-4 0  9993
2 55806  87.9211 348.4377 0002776  95.8687 264.2762 13.19726091130108
ONEWEB-0643             
1 55807U 23029M   25314.76216740 -.00000097  00000+0 -29544-3 0  9993
2 55807  87.9000 333.2583 0002564  87.8778 272.2645 13.14500905130695
ONEWEB-0644             
1 55808U 23029N   25314.36206900  .00000108  00000+0  23810-3 0  9998
2 55808  87.9216 348.5384 0002363  95.9020 264.2382 13.19726983130049
ONEWEB-0645             
1 55809U 23029P   25314.83249821  .00000029  00000+0  42164-4 0  9996
2 55809  87.9211 348.4367 0002271 106.1900 253.9482 13.18131044130105
ONEWEB-0646             
1 55810U 23029Q   25314.47738019 -.00000058  00000+0 -17781-3 0  9990
2 55810  87.9219 348.4992 0002201  96.2599 263.8785 13.19722622130043
ONEWEB-0648             
1 55811U 23029R   25314.42599531  .00000089  00000+0  20511-3 0  9997
2 55811  87.8989 333.2875 0002721 105.8003 254.3427 13.14502081130658
ONEWEB-0649             
1 55812U 23029S   25314.12356552  .00000059  00000+0  11380-3 0  9990
2 55812  87.9223 348.5650 0002274 101.6970 258.4419 13.19726687130034
ONEWEB-0650             
1 55813U 23029T   25314.80116503  .00000021  00000+0  20532-4 0  9995
2 55813  87.9219 348.4384 0002054  95.7813 264.3554 13.19727590130094
