[{"OBJECT_NAME":"ONEWEB-0534","OBJECT_ID":"2023-029B","EPOCH":"2025-11-10T23:22:37.275456","MEAN_MOTION":13.20771639,"ECCENTRICITY":0.00018758,"INCLINATION":87.9175,"RA_OF_ASC_NODE":318.0056,"ARG_OF_PERICENTER":94.1828,"MEAN_ANOMALY":265.952,"EPHEMERIS_TYPE":0,"CLASSIFICATION_TYPE":"U","NORAD_CAT_ID":55797,"ELEMENT_SET_NO":999,"REV_AT_EPOCH":13234,"BSTAR":0.00010423691,"MEAN_MOTION_DOT":5.5e-7,"MEAN_MOTION_DDOT":0},{"OBJECT_NAME":"ONEWEB-0556","OBJECT_ID":"2023-029C","EPOCH":"2025-11-10T23:31:42.419712","MEAN_MOTION":13.20771057,"ECCENTRICITY":0.00015729,"INCLINATION":87.9181,"RA_OF_ASC_NODE":318.0037,"ARG_OF_PERICENTER":114.6847,"MEAN_ANOMALY":245.445,"EPHEMERIS_TYPE":0,"CLASSIFICATION_TYPE":"U","NORAD_CAT_ID":55798,"ELEMENT_SET_NO":999,"REV_AT_EPOCH":13234,"BSTAR":-3.1179869e-5,"MEAN_MOTION_DOT":0,"MEAN_MOTION_DDOT":0},{"OBJECT_NAME":"ONEWEB-0562","OBJECT_ID":"2023-029D","EPOCH":"2025-11-10T23:13:29.775936","MEAN_MOTION":13.20773475,"ECCENTRICITY":0.00010092,"INCLINATION":87.9177,"RA_OF_ASC_NODE":317.9896,"ARG_OF_PERICENTER":105.4356,"MEAN_ANOMALY":254.6889,"EPHEMERIS_TYPE":0,"CLASSIFICATION_TYPE":"U","NORAD_CAT_ID":55799,"ELEMENT_SET_NO":999,"REV_AT_EPOCH":13234,"BSTAR":0.00022247235,"MEAN_MOTION_DOT":1.03e-6,"MEAN_MOTION_DDOT":0},{"OBJECT_NAME":"ONEWEB-0563","OBJECT_ID":"2023-029E","EPOCH":"2025-11-10T17:37:10.023456","MEAN_MOTION":13.20771485,"ECCENTRICITY":0.00019912,"INCLINATION":87.9183,"RA_OF_ASC_NODE":318.0622,"ARG_OF_PERICENTER":99.013,"MEAN_ANOMALY":261.1228,"EPHEMERIS_TYPE":0,"CLASSIFICATION_TYPE":"U","NORAD_CAT_ID":55800,"ELEMENT_SET_NO":999,"REV_AT_EPOCH":13230,"BSTAR":0.00034928102,"MEAN_MOTION_DOT":1.55e-6,"MEAN_MOTION_DDOT":0},{"OBJECT_NAME":"ONEWEB-0564","OBJECT_ID":"2023-029F","EPOCH":"2025-11-10T22:55:20.574336","MEAN_MOTION":13.20771662,"ECCENTRICITY":0.00013758,"INCLINATION":87.9169,"RA_OF_ASC_NODE":317.9959,"ARG_OF_PERICENTER":92.5655,"MEAN_ANOMALY":267.5636,"EPHEMERIS_TYPE":0,"CLASSIFICATION_TYPE":"U","NORAD_CAT_ID":55801,"ELEMENT_SET_NO":999,"REV_AT_EPOCH":13234,"BSTAR":0.00029855909,"MEAN_MOTION_DOT":1.34e-6,"MEAN_MOTION_DDOT":0},{"OBJECT_NAME":"ONEWEB-0638","OBJECT_ID":"2023-029G","EPOCH":"2025-11-10T18:47:13.130304","MEAN_MOTION":13.14501087,"ECCENTRICITY":0.00016101,"INCLINATION":87.8988,"RA_OF_ASC_NODE":333.283,"ARG_OF_PERICENTER":107.3617,"MEAN_ANOMALY":252.7689,"EPHEMERIS_TYPE":0,"CLASSIFICATION_TYPE":"U","NORAD_CAT_ID":55802,"ELEMENT_SET_NO":999,"REV_AT_EPOCH":13070,"BSTAR":-0.00045702059,"MEAN_MOTION_DOT":-1.57e-6,"MEAN_MOTION_DDOT":0},{"OBJECT_NAME":"ONEWEB-0639","OBJECT_ID":"2023-029H","EPOCH":"2025-11-10T19:56:54.976704","MEAN_MOTION":13.19725934,"ECCENTRICITY":0.0002962,"INCLINATION":87.9215,"RA_OF_ASC_NODE":348.4317,"ARG_OF_PERICENTER":102.2835,"MEAN_ANOMALY":257.863,"EPHEMERIS_TYPE":0,"CLASSIFICATION_TYPE":"U","NORAD_CAT_ID":55803,"ELEMENT_SET_NO":999,"REV_AT_EPOCH":13010,"BSTAR":-1.0224166e-5,"MEAN_MOTION_DOT":9.0e-8,"MEAN_MOTION_DDOT":0},{"OBJECT_NAME":"ONEWEB-0640","OBJECT_ID":"2023-029J","EPOCH":"2025-11-10T19:00:53.925984","MEAN_MOTION":13.14502016,"ECCENTRICITY":0.00019589,"INCLINATION":87.8989,"RA_OF_ASC_NODE":333.2667,"ARG_OF_PERICENTER":117.207,"MEAN_ANOMALY":242.926,"EPHEMERIS_TYPE":0,"CLASSIFICATION_TYPE":"U","NORAD_CAT_ID":55804,"ELEMENT_SET_NO":999,"REV_AT_EPOCH":13072,"BSTAR":-0.00064424131,"MEAN_MOTION_DOT":-2.26e-6,"MEAN_MOTION_DDOT":0},{"OBJECT_NAME":"ONEWEB-0641","OBJECT_ID":"2023-029K","EPOCH":"2025-11-10T19:50:04.733952","MEAN_MOTION":13.19726769,"ECCENTRICITY":0.00020637,"INCLINATION":87.9226,"RA_OF_ASC_NODE":348.4105,"ARG_OF_PERICENTER":96.7812,"MEAN_ANOMALY":263.3555,"EPHEMERIS_TYPE":0,"CLASSIFICATION_TYPE":"U","NORAD_CAT_ID":55805,"ELEMENT_SET_NO":999,"REV_AT_EPOCH":13011,"BSTAR":0.0001356053,"MEAN_MOTION_DOT":6.7e-7,"MEAN_MOTION_DDOT":0},{"OBJECT_NAME":"ONEWEB-0642","OBJECT_ID":"2023-029L","EPOCH":"2025-11-10T19:43:15.764736","MEAN_MOTION":13.19726091,"ECCENTRICITY":0.00027768,"INCLINATION":87.9211,"RA_OF_ASC_NODE":348.4377,"ARG_OF_PERICENTER":95.8687,"MEAN_ANOMALY":264.2762,"EPHEMERIS_TYPE":0,"CLASSIFICATION_TYPE":"U","NORAD_CAT_ID":55806,"ELEMENT_SET_NO":999,"REV_AT_EPOCH":13010,"BSTAR":2.5404275e-5,"MEAN_MOTION_DOT":2.3e-7,"MEAN_MOTION_DDOT":0},{"OBJECT_NAME":"ONEWEB-0643","OBJECT_ID":"2023-029M","EPOCH":"2025-11-10T18:17:31.263360","MEAN_MOTION":13.14500905,"ECCENTRICITY":0.00025648,"INCLINATION":87.9,"RA_OF_ASC_NODE":333.2583,"ARG_OF_PERICENTER":87.8778,"MEAN_ANOMALY":272.2645,"EPHEMERIS_TYPE":0,"CLASSIFICATION_TYPE":"U","NORAD_CAT_ID":55807,"ELEMENT_SET_NO":999,"REV_AT_EPOCH":13069,"BSTAR":-0.00029543563,"MEAN_MOTION_DOT":-9.7e-7,"MEAN_MOTION_DDOT":0},{"OBJECT_NAME":"ONEWEB-0644","OBJECT_ID":"2023-029N","EPOCH":"2025-11-10T08:41:22.761600","MEAN_MOTION":13.19726983,"ECCENTRICITY":0.00023631,"INCLINATION":87.9216,"RA_OF_ASC_NODE":348.5384,"ARG_OF_PERICENTER":95.902,"MEAN_ANOMALY":264.2382,"EPHEMERIS_TYPE":0,"CLASSIFICATION_TYPE":"U","NORAD_CAT_ID":55808,"ELEMENT_SET_NO":999,"REV_AT_EPOCH":13004,"BSTAR":0.00023810091,"MEAN_MOTION_DOT":1.08e-6,"MEAN_MOTION_DDOT":0},{"OBJECT_NAME":"ONEWEB-0645","OBJECT_ID":"2023-029P","EPOCH":"2025-11-10T19:58:47.845344","MEAN_MOTION":13.18131044,"ECCENTRICITY":0.00022711,"INCLINATION":87.9211,"RA_OF_ASC_NODE":348.4367,"ARG_OF_PERICENTER":106.19,"MEAN_ANOMALY":253.9482,"EPHEMERIS_TYPE":0,"CLASSIFICATION_TYPE":"U","NORAD_CAT_ID":55809,"ELEMENT_SET_NO":999,"REV_AT_EPOCH":13010,"BSTAR":4.2164367e-5,"MEAN_MOTION_DOT":2.9e-7,"MEAN_MOTION_DDOT":0},{"OBJECT_NAME":"ONEWEB-0646","OBJECT_ID":"2023-029Q","EPOCH":"2025-11-10T11:27:25.648416","MEAN_MOTION":13.19722622,"ECCENTRICITY":0.00022013,"INCLINATION":87.9219,"RA_OF_ASC_NODE":348.4992,"ARG_OF_PERICENTER":96.2599,"MEAN_ANOMALY":263.8785,"EPHEMERIS_TYPE":0,"CLASSIFICATION_TYPE":"U","NORAD_CAT_ID":55810,"ELEMENT_SET_NO":999,"REV_AT_EPOCH":13004,"BSTAR":-0.00017780649,"MEAN_MOTION_DOT":-5.8e-7,"MEAN_MOTION_DDOT":0},{"OBJECT_NAME":"ONEWEB-0648","OBJECT_ID":"2023-029R","EPOCH":"2025-11-10T10:13:25.994784","MEAN_MOTION":13.14502081,"ECCENTRICITY":0.00027212,"INCLINATION":87.8989,"RA_OF_ASC_NODE":333.2875,"ARG_OF_PERICENTER":105.8003,"MEAN_ANOMALY":254.3427,"EPHEMERIS_TYPE":0,"CLASSIFICATION_TYPE":"U","NORAD_CAT_ID":55811,"ELEMENT_SET_NO":999,"REV_AT_EPOCH":13065,"BSTAR":0.00020510583,"MEAN_MOTION_DOT":8.9e-7,"MEAN_MOTION_DDOT":0},{"OBJECT_NAME":"ONEWEB-0649","OBJECT_ID":"2023-029S","EPOCH":"2025-11-10T02:57:56.060928","MEAN_MOTION":13.19726687,"ECCENTRICITY":0.00022744,"INCLINATION":87.9223,"RA_OF_ASC_NODE":348.565,"ARG_OF_PERICENTER":101.697,"MEAN_ANOMALY":258.4419,"EPHEMERIS_TYPE":0,"CLASSIFICATION_TYPE":"U","NORAD_CAT_ID":55812,"ELEMENT_SET_NO":999,"REV_AT_EPOCH":13003,"BSTAR":0.00011379626,"MEAN_MOTION_DOT":5.9e-7,"MEAN_MOTION_DDOT":0},{"OBJECT_NAME":"ONEWEB-0650","OBJECT_ID":"2023-029T","EPOCH":"2025-11-10T19:13:40.658592","MEAN_MOTION":13.1972759,"ECCENTRICITY":0.00020549,"INCLINATION":87.9219,"RA_OF_ASC_NODE":348.4384,"ARG_OF_PERICENTER":95.7813,"MEAN_ANOMALY":264.3554,"EPHEMERIS_TYPE":0,"CLASSIFICATION_TYPE":"U","NORAD_CAT_ID":55813,"ELEMENT_SET_NO":999,"REV_AT_EPOCH":13009,"BSTAR":2.0531924e-5,"MEAN_MOTION_DOT":2.1e-7,"MEAN_MOTION_DDOT":0}]
